EUTELSAT KONNECT        
1 45027U 20005B   25199.55821821  .00000055  00000+0  00000+0 0  9991
2 45027   0.0575  90.6089 0000727 134.6365 279.5279  1.00267121 20983
EUTELSAT QUANTUM        
1 49056U 21069B   25199.56627824  .00000132  00000+0  00000+0 0  9992
2 49056   0.0093  24.6463 0001753 109.3246  54.1844  1.00272230 14585
EUTELSAT KONNECT VHTS   
1 53765U 22110A   25199.55735154  .00000023  00000+0  00000+0 0  9996
2 53765   0.0517  94.7731 0002399  31.7761  13.3891  1.00269883  3487
EUTELSAT HOTBIRD 13F    
1 54048U 22134A   25199.73764877  .00000093  00000+0  00000+0 0  9998
2 54048   0.0651 287.0127 0001778  68.6068 219.7181  1.00272232 10031
EUTELSAT HOTBIRD 13G    
1 54225U 22146A   25199.73764821  .00000093  00000+0  00000+0 0  9997
2 54225   0.0565 237.3592 0002239 307.5296  30.4114  1.00271108  4125
EUTELSAT 36D            
1 59346U 24059A   25199.77489832  .00000161  00000+0  00000+0 0  9997
2 59346   0.0180  43.5055 0000398 184.0655  24.0802  1.00275106  4809
